H1 CPF 01  gfz 2022 03 28 12  5872 tandemx   
H2 1003001  6202 36605    2022 03 28 12 59 42 2022 04 02 00 00 42   120 1 1  0 0 0
H9
10 0 59668  56142.000000  0    5214664.979   4138560.577  -1781896.205
10 0 59668  56262.000000  0    5462830.101   4103463.807   -894937.565
10 0 59668  56382.000000  0    5614323.386   3993207.592      7759.196
10 0 59668  56502.000000  0    5665155.625   3811401.854    910318.380
10 0 59668  56622.000000  0    5613187.802   3562976.245   1796850.210
10 0 59668  56742.000000  0    5458193.760   3254060.510   2651739.508
10 0 59668  56862.000000  0    5201883.809   2891841.902   3459929.606
10 0 59668  56982.000000  0    4847888.620   2484401.818   4207195.131
10 0 59668  57102.000000  0    4401703.118   2040535.610   4880395.700
10 0 59668  57222.000000  0    3870596.868   1569563.451   5467707.423
10 0 59668  57342.000000  0    3263487.051   1081133.895   5958831.188
10 0 59668  57462.000000  0    2590779.763    585024.356   6345167.419
10 0 59668  57582.000000  0    1864186.212     90945.963   6619958.948
10 0 59668  57702.000000  0    1096516.228   -391645.053   6778404.387
10 0 59668  57822.000000  0     301449.701   -853728.061   6817738.399
10 0 59668  57942.000000  0    -506708.403  -1286886.157   6737275.925
10 0 59668  58062.000000  0   -1313285.117  -1683459.267   6538422.716
10 0 59668  58182.000000  0   -2103504.675  -2036679.572   6224650.767
10 0 59668  58302.000000  0   -2862756.832  -2340786.353   5801441.912
10 0 59668  58422.000000  0   -3576868.543  -2591121.857   5276200.862
10 0 59668  58542.000000  0   -4232374.070  -2784205.146   4658131.018
10 0 59668  58662.000000  0   -4816774.079  -2917781.028   3958077.082
10 0 59668  58782.000000  0   -5318780.172  -2990843.071   3188337.921
10 0 59668  58902.000000  0   -5728540.202  -3003631.153   2362452.674
10 0 59668  59022.000000  0   -6037840.073  -2957603.950   1494961.519
10 0 59668  59142.000000  0   -6240275.060  -2855385.763    601143.865
10 0 59668  59262.000000  0   -6331385.317  -2700687.358   -303258.121
10 0 59668  59382.000000  0   -6308754.084  -2498205.068  -1202325.444
10 0 59668  59502.000000  0   -6172063.289  -2253498.959  -2080252.708
10 0 59668  59622.000000  0   -5923105.496  -1972854.472  -2921633.316
10 0 59668  59742.000000  0   -5565754.689  -1663131.302  -3711734.394
10 0 59668  59862.000000  0   -5105896.007  -1331603.427  -4436756.284
10 0 59668  59982.000000  0   -4551317.573   -985794.373  -5084071.374
10 0 59668  60102.000000  0   -3911566.857   -633311.271  -5642438.722
10 0 59668  60222.000000  0   -3197775.581   -281682.091  -6102189.931
10 0 59668  60342.000000  0   -2422458.712     61800.531  -6455384.918
10 0 59668  60462.000000  0   -1599291.473    390225.367  -6695937.283
10 0 59668  60582.000000  0    -742868.034    697196.021  -6819708.182
10 0 59668  60702.000000  0     131552.902    976951.553  -6824569.143
10 0 59668  60822.000000  0    1008312.489   1224470.921  -6710434.219
10 0 59668  60942.000000  0    1871625.325   1435560.514  -6479264.151
10 0 59668  61062.000000  0    2705858.256   1606924.836  -6135036.516
10 0 59668  61182.000000  0    3495809.204   1736217.542  -5683683.881
10 0 59668  61302.000000  0    4226980.854   1822072.392  -5133001.070
10 0 59668  61422.000000  0    4885848.021   1864114.686  -4492522.987
10 0 59668  61542.000000  0    5460113.337   1862952.141  -3773370.044
10 0 59668  61662.000000  0    5938944.198   1820144.601  -2988064.078
10 0 59668  61782.000000  0    6313187.608   1738153.444  -2150317.752
10 0 59668  61902.000000  0    6575557.596   1620271.827  -1274797.589
10 0 59668  62022.000000  0    6720788.086   1470536.016   -376865.644
10 0 59668  62142.000000  0    6745747.572   1293619.732    527695.502
10 0 59668  62262.000000  0    6649510.170   1094715.161   1422966.736
10 0 59668  62382.000000  0    6433385.934    879402.921   2293180.591
10 0 59668  62502.000000  0    6100903.775    653513.237   3123009.082
10 0 59668  62622.000000  0    5657749.836    422983.386   3897840.983
10 0 59668  62742.000000  0    5111661.809    193714.586   4604044.751
10 0 59668  62862.000000  0    4472285.089    -28566.810   5229209.671
10 0 59668  62982.000000  0    3750992.267   -238443.197   5762364.757
10 0 59668  63102.000000  0    2960670.255   -430928.955   6194166.932
10 0 59668  63222.000000  0    2115482.967   -601580.864   6517059.099
10 0 59668  63342.000000  0    1230612.921   -746594.811   6725397.039
10 0 59668  63462.000000  0     321984.608   -862886.740   6815543.379
10 0 59668  63582.000000  0    -594023.669   -948155.725   6785925.905
10 0 59668  63702.000000  0   -1500874.247  -1000929.009   6637062.343
10 0 59668  63822.000000  0   -2382167.312  -1020587.407   6371551.199
10 0 59668  63942.000000  0   -3221935.724  -1007370.839   5994029.389
10 0 59668  64062.000000  0   -4004935.697   -962364.279   5511098.178
10 0 59668  64182.000000  0   -4716928.526   -887465.289   4931214.398
10 0 59668  64302.000000  0   -5344946.734   -785332.461   4264547.570
10 0 59668  64422.000000  0   -5877538.543   -659315.768   3522804.906
10 0 59668  64542.000000  0   -6304985.140   -513370.280   2719027.759
10 0 59668  64662.000000  0   -6619488.346   -351955.082   1867363.180
10 0 59668  64782.000000  0   -6815323.280   -179919.388    982810.977
10 0 59668  64902.000000  0   -6888949.316     -2379.552     80952.347
10 0 59668  65022.000000  0   -6839077.290    175410.761   -822333.225
10 0 59668  65142.000000  0   -6666690.718    348193.953  -1711156.933
10 0 59668  65262.000000  0   -6375021.106    510841.141  -2569907.123
10 0 59668  65382.000000  0   -5969481.153    658481.357  -3383530.047
10 0 59668  65502.000000  0   -5457552.057    786624.251  -4137798.860
10 0 59668  65622.000000  0   -4848631.922    891272.864  -4819561.295
10 0 59668  65742.000000  0   -4153850.154    969023.611  -5416964.434
10 0 59668  65862.000000  0   -3385852.973   1017151.608  -5919652.267
10 0 59668  65982.000000  0   -2558565.158   1033679.199  -6318934.531
10 0 59668  66102.000000  0   -1686933.925   1017427.265  -6607925.024
10 0 59668  66222.000000  0    -786658.184    968049.482  -6781649.341
10 0 59668  66342.000000  0     126090.379    886047.465  -6837119.792
10 0 59668  66462.000000  0    1034949.661    772767.683  -6773381.225
10 0 59668  66582.000000  0    1923653.648    630379.685  -6591528.352
10 0 59668  66702.000000  0    2776317.761    461836.036  -6294688.698
10 0 59668  66822.000000  0    3577717.932    270815.028  -5887974.521
10 0 59668  66942.000000  0    4313559.410     61645.620  -5378402.975
10 0 59668  67062.000000  0    4970731.994   -160783.265  -4774786.773
10 0 59668  67182.000000  0    5537549.693   -391127.916  -4087593.611
10 0 59668  67302.000000  0    6003966.914   -623708.101  -3328774.123
10 0 59668  67422.000000  0    6361767.382   -852636.039  -2511562.148
10 0 59668  67542.000000  0    6604721.894  -1071953.636  -1650248.532
10 0 59668  67662.000000  0    6728709.372  -1275773.977   -759931.376
10 0 59668  67782.000000  0    6731797.320  -1458424.154    143751.616
10 0 59668  67902.000000  0    6614280.057  -1614585.831   1044903.920
10 0 59668  68022.000000  0    6378671.299  -1739429.941   1927658.385
10 0 59668  68142.000000  0    6029652.549  -1828742.087   2776465.736
10 0 59668  68262.000000  0    5573976.797  -1879034.063   3576377.545
10 0 59668  68382.000000  0    5020330.818  -1887640.247   4313315.505
10 0 59668  68502.000000  0    4379160.813  -1852795.581   4974322.077
10 0 59668  68622.000000  0    3662467.079  -1773693.099   5547788.966
10 0 59668  68742.000000  0    2883570.153  -1650521.084   6023659.984
10 0 59668  68862.000000  0    2056854.981  -1484478.330   6393602.072
10 0 59668  68982.000000  0    1197500.221  -1277768.142   6651145.577
10 0 59668  69102.000000  0     321195.705  -1033570.333   6791791.867
10 0 59668  69222.000000  0    -556145.524   -755991.658   6813086.252
10 0 59668  69342.000000  0   -1418675.267   -449996.514   6714657.098
10 0 59668  69462.000000  0   -2250895.065   -121318.387   6498221.796
10 0 59668  69582.000000  0   -3037933.556    223646.907   6167559.144
10 0 59668  69702.000000  0   -3765813.116    577964.299   5728448.462
10 0 59668  69822.000000  0   -4421701.943    934296.651   5188574.685
10 0 59668  69942.000000  0   -4994146.216   1285054.248   4557399.767
10 0 59668  70062.000000  0   -5473278.214   1622554.167   3846001.664
10 0 59668  70182.000000  0   -5850994.672   1939185.494   3066882.499
10 0 59668  70302.000000  0   -6121102.395   2227577.160   2233749.912
10 0 59668  70422.000000  0   -6279428.192   2480764.519   1361274.218
10 0 59668  70542.000000  0   -6323889.416   2692350.923    464824.386
10 0 59668  70662.000000  0   -6254521.320   2856659.177   -439810.784
10 0 59668  70782.000000  0   -6073462.007   2968869.177  -1336709.579
10 0 59668  70902.000000  0   -5784894.792   3025138.303  -2210106.362
10 0 59668  71022.000000  0   -5394949.323   3022701.949  -3044677.202
10 0 59668  71142.000000  0   -4911563.856   2959950.384  -3825813.678
10 0 59668  71262.000000  0   -4344314.247   2836481.582  -4539879.675
10 0 59668  71382.000000  0   -3704214.265   2653128.661  -5174446.170
10 0 59668  71502.000000  0   -3003492.963   2411962.008  -5718499.827
10 0 59668  71622.000000  0   -2255356.092   2116267.521  -6162624.161
10 0 59668  71742.000000  0   -1473733.506   1770500.573  -6499152.458
10 0 59668  71862.000000  0    -673019.452   1380216.843  -6722287.421
10 0 59668  71982.000000  0     132188.671    951982.410  -6828190.625
10 0 59668  72102.000000  0     927349.625    493264.741  -6815041.011
10 0 59668  72222.000000  0    1698235.112     12305.288  -6683064.883
10 0 59668  72342.000000  0    2431179.020   -482025.347  -6434531.312
10 0 59668  72462.000000  0    3113314.426   -980386.350  -6073717.811
10 0 59668  72582.000000  0    3732797.139  -1473138.296  -5606843.858
99
